#dP2018  2 24  0  0  0.00000000      96 __u+U ITR00 FIT  IAC
## 1989 518400.00000000   900.00000000 58173 0.0000000000000
+   87   C02C03C04C05C06C07C08C09C10C11C12C13C14E01E02E03E04
+        E05E07E08E09E11E12E14E18E19E24E26E30G01G02G03G04G05
+        G06G07G08G09G10G11G12G13G14G15G16G17G19G20G21G22G23
+        G24G25G26G27G28G29G30G31G32J01J02J03R01R02R03R04R05
+        R06R07R08R09R10R11R13R14R15R16R17R18R19R20R21R22R23
+        R24R26  0  0  0  0  0  0  0  0  0  0  0  0  0  0  0
++         0  0  0  0  0  0  0  0  0  0  0  0  0  0  0  0  0
++         0  0  0  0  0  0  0  0  0  0  0  0  0  0  0  0  0
++         0  0  0  0  0  0  0  0  0  0  0  0  0  0  0  0  0
++         0  0  0  0  0  0  0  0  0  0  0  0  0  0  0  0  0
++         0  0  0  0  0  0  0  0  0  0  0  0  0  0  0  0  0
++         0  0  0  0  0  0  0  0  0  0  0  0  0  0  0  0  0
%c M  cc GPS ccc cccc cccc cccc cccc ccccc ccccc ccccc ccccc
%c cc cc ccc ccc cccc cccc cccc cccc ccccc ccccc ccccc ccccc
%f  0.0000000  0.000000000  0.00000000000  0.000000000000000
%f  0.0000000  0.000000000  0.00000000000  0.000000000000000
%i    0    0    0    0      0      0      0      0         0
%i    0    0    0    0      0      0      0      0         0
/*                                                          
/*   RSA / INFORMATION & ANALYSIS CENTER (IAC) OF MCC       
/*   ULTRA-RAPID DETERMINATION                              
/* PCV:IGS14_1984 OL/AL:FES2004  NONE     YN ORB:CoN CLK:CoN
*  2018 02 24  5 30  0.00000000
PC02   4388.130252  41911.715278  -1028.050661   -248.553899
PC03 -14767.635216  39450.784946   -890.368673 999999.999999
PC04 -39654.292216  14350.012147    -59.893727 999999.999999
PC05  21837.708431  36018.666903  -1250.849800   -162.690492
PC06 -22171.140641  33974.274354  11113.977455   -680.527699
PC07  -8501.560577  33593.783955  24422.624861   -322.742614
PC08 -15313.986606  18424.303340 -34650.487537    193.704332
PC09 -11378.472349  33282.963288  23169.893518   -373.800625
PC10   2193.581087  39894.337215  14105.531294    -38.788243
PC11 -13110.212653  15457.791305 -19151.891633   -403.724824
PC12 -26706.868248   7569.201461  -3242.213984    384.761385
PC13   1615.927464  24321.864252 -34364.755380   -219.941638
PC14 -10843.598006  25462.710278  -3268.404461    236.295772
PE01 -12455.859544  11465.603521  24278.331034   -283.904927
PE02  12439.619186 -11501.624606 -24276.126369      5.642768
PE03  21691.158996 -18818.690344   7161.194823     -2.677804
PE04 -10254.123956  25411.962814  11185.999131     17.888373
PE05  20454.485423  -1183.818787  21363.464833    315.971022
PE07  -7245.514354 -17112.499359 -23034.322040     78.767261
PE08  10077.329202 -25473.368255 -11202.865983   6635.887681
PE09   7251.543600  17011.596305  23118.665029   6866.138906
PE11  18271.353873  14855.940761 -17942.376367   1847.320347
PE12  -3625.896988  16178.495064 -24508.444105   3576.285494
PE14  21068.938976 -15156.123798   7265.428722   6625.913820
PE18  -9583.779232  21127.359149 -19572.372092   6404.318345
PE19 -22058.463361  17594.288259  -8931.802636     19.718169
PE24  13720.375006  25662.228166  -5369.698656   6845.821408
PE26 -29129.775887  -5130.845287   1174.002730   6235.077481
PE30   -882.182792 -26411.362639 -13359.278400   6052.043105
PG01  22778.835437  13790.206821   2082.312321    -30.563752
PG02  -7529.629347 -19124.250242  17520.407250    191.592761
PG03  12996.655178  12069.245620  19767.291828     15.711764
PG04  -8480.996213  23148.831428   9249.580448     39.870266
PG05  -2861.180478 -25682.607499  -5741.335702    -13.558283
PG06   5568.546707 -14221.780718  21760.801106    414.025724
PG07  21614.633782   1967.495795 -15401.427975    232.190791
PG08  13036.674031   9611.288693 -21021.969960    -92.272037
PG09  24699.176657  -7219.979336   6566.172061    503.066031
PG10 -11025.515520  19663.895718 -13887.654327    163.573479
PG11  23791.190336   9768.847392  -6894.709566   -736.703013
PG12 -10837.157011 -14682.810712  19194.897873    348.656859
PG13  -3268.441589 -14819.245966 -21916.425787    -95.605833
PG14 -12094.109435  17160.150662  16449.186502    -94.369350
PG15 -14806.895392  -8990.931146 -20427.436752   -356.834912
PG16    425.285188  25569.564336  -6431.410743     31.612622
PG17  19381.544517 -15431.298325   9782.522831   -120.729152
PG19  14499.935603 -16239.657428  15072.723738   -454.988509
PG20 -14472.388787 -12304.818885 -18725.759910    501.664846
PG21 -20238.737628   1582.304874 -16339.747003   -426.807165
PG22  11406.057060  18522.068478  15474.309406   -302.180170
PG23  20943.335121   2898.179938  16592.941251   -218.855539
PG24 -22183.182649 -14839.363630  -1327.131189    -46.464146
PG25 -14846.657236    102.666908  21846.667891   -543.716934
PG26  -4786.167084  25590.680701   4890.413325   -239.468350
PG27   -779.969012  16224.805048 -21023.261657    368.073999
PG28  12967.004824 -16654.481221 -15522.430051    691.566267
PG29 -24392.552552   2906.991042  10065.763777    491.711905
PG30  16296.859881  -5947.645351 -20149.992854    100.711160
PG31  -5083.527644  14730.189699  21499.536190    139.619625
PG32 -18884.142556  16389.012555   8869.090438   -531.266550
PJ01 -21049.099697  31608.527920 -13692.739888    -90.282922
PJ02 -24558.388533  21070.230458  31654.042388     -0.073571
PJ03 -34953.981015  23195.278153     22.833407    -16.262302
PR01  13920.319411  -4470.259135  20897.050421     22.522632
PR02  14561.570143 -20092.897801   6048.863074    296.812638
PR03   6074.743631 -21998.472516 -11400.756800    125.000788
PR04  -6241.184247 -10640.000283 -22316.430638    251.069001
PR05 -14416.785046   6192.342318 -20123.859307   -253.565311
PR06 -14010.318570  20669.015765  -5154.140602    127.622454
PR07  -5753.348861  21834.973076  11863.565143    -30.891075
PR08   5851.682532  11205.290075  22202.912079     38.334142
PR09  -5947.837923  11096.936277  22204.878006     46.448804
PR10   6511.915393  21836.776852  11517.036230     19.000969
PR11  14906.080796  19760.608878  -6232.498846    -22.543456
PR13   5128.854886 -11563.107432 -22171.921098     -7.798134
PR14  -6245.890260 -21756.642960 -11747.369203     24.949272
PR15 -13802.682469 -21351.336689   2678.149603     -6.774711
PR16 -14910.399448  -6570.514363  19642.913950     86.358586
PR17   1141.904442 -10723.985289  23130.351236    111.718317
PR18 -16506.529225  -7994.121164  17715.145223    185.979281
PR19 -25391.712523  -1236.997714   2072.298375    -45.524605
PR20 -18799.200426   6892.982294 -15755.149790   -328.376520
PR21   -895.376457  10639.662458 -23158.619875     27.873456
PR22  18199.127049   7364.061102 -16354.692927    -21.371354
PR23  25458.409967   -800.351320   1456.181074    138.089788
PR24  18191.262911  -7481.092422  16235.683526   -162.863997
PR26 -18917.553602   7191.510147 -15521.534654 999999.999999
EOF
